STARLINK-11660 [DTC]    
1 63761U 25089L   25281.00001456  .00157043  00000+0  12024-2 0  9991
2 63761  42.9992 132.4037 0001487 265.2751  94.7947 15.70878964 26078
STARLINK-11699 [DTC]    
1 63762U 25089M   25280.59741169  .00243911  00000+0  18449-2 0  9994
2 63762  42.9977 135.4293 0001337 274.2068  85.8647 15.70894206 26057
STARLINK-11693 [DTC]    
1 63763U 25089N   25280.94265538  .00426950  00000+0  31482-2 0  9993
2 63763  42.9996 132.8351 0002045 287.1034  72.9609 15.70951123 26000
STARLINK-33760          
1 63764U 25089P   25281.12662026  .00033421  00000+0  12167-2 0  9994
2 63764  43.0019 186.9512 0001234 274.3311  85.7400 15.27629061 25626
STARLINK-33941          
1 63765U 25089Q   25281.12918783  .00061629  00000+0  22260-2 0  9995
2 63765  43.0031 186.9697 0001753 264.2946  95.7706 15.27645300 25616
STARLINK-33824          
1 63766U 25089R   25281.08051262  .00041923  00000+0  15218-2 0  9991
2 63766  43.0022 187.4696 0001652 285.2303  74.8366 15.27635056 25617
STARLINK-33808          
1 63767U 25089S   25281.11762501  .00036376  00000+0  13228-2 0  9996
2 63767  43.0024 186.8823 0001344 272.9712  87.0986 15.27631950 25624
STARLINK-33844          
1 63768U 25089T   25281.09835413  .00054950  00000+0  19885-2 0  9990
2 63768  42.9988 186.7330 0001525 269.2182  90.8494 15.27629329 25628
STARLINK-33907          
1 63769U 25089U   25281.12277414  .00043791  00000+0  15889-2 0  9997
2 63769  42.9932 186.9246 0000833  50.9862 309.1064 15.27631742 25572
STARLINK-33884          
1 63770U 25089V   25281.09964661  .00063106  00000+0  22803-2 0  9998
2 63770  42.9994 186.7410 0001507 269.1831  90.8848 15.27621750 25574
STARLINK-33841          
1 63771U 25089W   25281.10735256  .00044840  00000+0  16248-2 0  9997
2 63771  43.0005 186.8016 0001451 280.4695  79.5993 15.27665517 25579
STARLINK-33769          
1 63773U 25089X   25281.09706576  .00049308  00000+0  17862-2 0  9997
2 63773  42.9978 186.7188 0001032 282.8982  77.1754 15.27638543 25610
STARLINK-33914          
1 63774U 25089Y   25281.08469523  .00035994  00000+0  13094-2 0  9994
2 63774  42.9974 183.1282 0001263 278.6164  81.4544 15.27624573 25662
STARLINK-33932          
1 63775U 25091A   25281.14105913  .00036402  00000+0  13239-2 0  9991
2 63775  42.9996 193.8888 0000271 316.8967  43.1864 15.27627453 25616
STARLINK-33930          
1 63776U 25091B   25281.11035967  .00055187  00000+0  19955-2 0  9992
2 63776  43.0014 194.5211 0001858 273.4404  86.6235 15.27653825 25564
STARLINK-33911          
1 63777U 25091C   25281.13816017  .00040201  00000+0  14602-2 0  9993
2 63777  43.0014 186.9093 0001524 293.9879  66.0813 15.27630365 25659
