[{"OBJECT_NAME":"STARLINK-11660 [DTC]","OBJECT_ID":"2025-089L","EPOCH":"2025-10-08T00:00:01.257984","MEAN_MOTION":15.70878964,"ECCENTRICITY":0.00014876,"INCLINATION":42.9992,"RA_OF_ASC_NODE":132.4037,"ARG_OF_PERICENTER":265.2751,"MEAN_ANOMALY":94.7947,"EPHEMERIS_TYPE":0,"CLASSIFICATION_TYPE":"U","NORAD_CAT_ID":63761,"ELEMENT_SET_NO":999,"REV_AT_EPOCH":2607,"BSTAR":0.0012024113,"MEAN_MOTION_DOT":0.00157043,"MEAN_MOTION_DDOT":0},{"OBJECT_NAME":"STARLINK-11699 [DTC]","OBJECT_ID":"2025-089M","EPOCH":"2025-10-07T14:20:16.370016","MEAN_MOTION":15.70894206,"ECCENTRICITY":0.0001337,"INCLINATION":42.9977,"RA_OF_ASC_NODE":135.4293,"ARG_OF_PERICENTER":274.2068,"MEAN_ANOMALY":85.8647,"EPHEMERIS_TYPE":0,"CLASSIFICATION_TYPE":"U","NORAD_CAT_ID":63762,"ELEMENT_SET_NO":999,"REV_AT_EPOCH":2605,"BSTAR":0.0018449,"MEAN_MOTION_DOT":0.00243911,"MEAN_MOTION_DDOT":0},{"OBJECT_NAME":"STARLINK-11693 [DTC]","OBJECT_ID":"2025-089N","EPOCH":"2025-10-07T22:37:25.424832","MEAN_MOTION":15.70951123,"ECCENTRICITY":0.0002045,"INCLINATION":42.9996,"RA_OF_ASC_NODE":132.8351,"ARG_OF_PERICENTER":287.1034,"MEAN_ANOMALY":72.9609,"EPHEMERIS_TYPE":0,"CLASSIFICATION_TYPE":"U","NORAD_CAT_ID":63763,"ELEMENT_SET_NO":999,"REV_AT_EPOCH":2600,"BSTAR":0.0031482,"MEAN_MOTION_DOT":0.0042695,"MEAN_MOTION_DDOT":0},{"OBJECT_NAME":"STARLINK-33760","OBJECT_ID":"2025-089P","EPOCH":"2025-10-08T03:02:19.990464","MEAN_MOTION":15.27629061,"ECCENTRICITY":0.00012346,"INCLINATION":43.0019,"RA_OF_ASC_NODE":186.9512,"ARG_OF_PERICENTER":274.3311,"MEAN_ANOMALY":85.74,"EPHEMERIS_TYPE":0,"CLASSIFICATION_TYPE":"U","NORAD_CAT_ID":63764,"ELEMENT_SET_NO":999,"REV_AT_EPOCH":2562,"BSTAR":0.00121672,"MEAN_MOTION_DOT":0.00033421,"MEAN_MOTION_DDOT":0},{"OBJECT_NAME":"STARLINK-33941","OBJECT_ID":"2025-089Q","EPOCH":"2025-10-08T03:06:01.828512","MEAN_MOTION":15.276453,"ECCENTRICITY":0.00017531,"INCLINATION":43.0031,"RA_OF_ASC_NODE":186.9697,"ARG_OF_PERICENTER":264.2946,"MEAN_ANOMALY":95.7706,"EPHEMERIS_TYPE":0,"CLASSIFICATION_TYPE":"U","NORAD_CAT_ID":63765,"ELEMENT_SET_NO":999,"REV_AT_EPOCH":2561,"BSTAR":0.0022260068,"MEAN_MOTION_DOT":0.00061629,"MEAN_MOTION_DDOT":0},{"OBJECT_NAME":"STARLINK-33824","OBJECT_ID":"2025-089R","EPOCH":"2025-10-08T01:55:56.290368","MEAN_MOTION":15.27635056,"ECCENTRICITY":0.00016527,"INCLINATION":43.0022,"RA_OF_ASC_NODE":187.4696,"ARG_OF_PERICENTER":285.2303,"MEAN_ANOMALY":74.8366,"EPHEMERIS_TYPE":0,"CLASSIFICATION_TYPE":"U","NORAD_CAT_ID":63766,"ELEMENT_SET_NO":999,"REV_AT_EPOCH":2561,"BSTAR":0.0015217889,"MEAN_MOTION_DOT":0.00041923,"MEAN_MOTION_DDOT":0},{"OBJECT_NAME":"STARLINK-33808","OBJECT_ID":"2025-089S","EPOCH":"2025-10-08T02:49:22.800864","MEAN_MOTION":15.2763195,"ECCENTRICITY":0.00013446,"INCLINATION":43.0024,"RA_OF_ASC_NODE":186.8823,"ARG_OF_PERICENTER":272.9712,"MEAN_ANOMALY":87.0986,"EPHEMERIS_TYPE":0,"CLASSIFICATION_TYPE":"U","NORAD_CAT_ID":63767,"ELEMENT_SET_NO":999,"REV_AT_EPOCH":2562,"BSTAR":0.0013228183,"MEAN_MOTION_DOT":0.00036376,"MEAN_MOTION_DDOT":0},{"OBJECT_NAME":"STARLINK-33844","OBJECT_ID":"2025-089T","EPOCH":"2025-10-08T02:21:37.796832","MEAN_MOTION":15.27629329,"ECCENTRICITY":0.00015254,"INCLINATION":42.9988,"RA_OF_ASC_NODE":186.733,"ARG_OF_PERICENTER":269.2182,"MEAN_ANOMALY":90.8494,"EPHEMERIS_TYPE":0,"CLASSIFICATION_TYPE":"U","NORAD_CAT_ID":63768,"ELEMENT_SET_NO":999,"REV_AT_EPOCH":2562,"BSTAR":0.0019885414,"MEAN_MOTION_DOT":0.0005495,"MEAN_MOTION_DDOT":0},{"OBJECT_NAME":"STARLINK-33907","OBJECT_ID":"2025-089U","EPOCH":"2025-10-08T02:56:47.685696","MEAN_MOTION":15.27631742,"ECCENTRICITY":8.33e-5,"INCLINATION":42.9932,"RA_OF_ASC_NODE":186.9246,"ARG_OF_PERICENTER":50.9862,"MEAN_ANOMALY":309.1064,"EPHEMERIS_TYPE":0,"CLASSIFICATION_TYPE":"U","NORAD_CAT_ID":63769,"ELEMENT_SET_NO":999,"REV_AT_EPOCH":2557,"BSTAR":0.0015889248,"MEAN_MOTION_DOT":0.00043791,"MEAN_MOTION_DDOT":0},{"OBJECT_NAME":"STARLINK-33884","OBJECT_ID":"2025-089V","EPOCH":"2025-10-08T02:23:29.467104","MEAN_MOTION":15.2762175,"ECCENTRICITY":0.00015074,"INCLINATION":42.9994,"RA_OF_ASC_NODE":186.741,"ARG_OF_PERICENTER":269.1831,"MEAN_ANOMALY":90.8848,"EPHEMERIS_TYPE":0,"CLASSIFICATION_TYPE":"U","NORAD_CAT_ID":63770,"ELEMENT_SET_NO":999,"REV_AT_EPOCH":2557,"BSTAR":0.0022803048,"MEAN_MOTION_DOT":0.00063106,"MEAN_MOTION_DDOT":0},{"OBJECT_NAME":"STARLINK-33841","OBJECT_ID":"2025-089W","EPOCH":"2025-10-08T02:34:35.261184","MEAN_MOTION":15.27665517,"ECCENTRICITY":0.0001451,"INCLINATION":43.0005,"RA_OF_ASC_NODE":186.8016,"ARG_OF_PERICENTER":280.4695,"MEAN_ANOMALY":79.5993,"EPHEMERIS_TYPE":0,"CLASSIFICATION_TYPE":"U","NORAD_CAT_ID":63771,"ELEMENT_SET_NO":999,"REV_AT_EPOCH":2557,"BSTAR":0.0016248404,"MEAN_MOTION_DOT":0.0004484,"MEAN_MOTION_DDOT":0},{"OBJECT_NAME":"STARLINK-33769","OBJECT_ID":"2025-089X","EPOCH":"2025-10-08T02:19:46.481664","MEAN_MOTION":15.27638543,"ECCENTRICITY":0.00010321,"INCLINATION":42.9978,"RA_OF_ASC_NODE":186.7188,"ARG_OF_PERICENTER":282.8982,"MEAN_ANOMALY":77.1754,"EPHEMERIS_TYPE":0,"CLASSIFICATION_TYPE":"U","NORAD_CAT_ID":63773,"ELEMENT_SET_NO":999,"REV_AT_EPOCH":2561,"BSTAR":0.0017862023,"MEAN_MOTION_DOT":0.00049308,"MEAN_MOTION_DDOT":0},{"OBJECT_NAME":"STARLINK-33914","OBJECT_ID":"2025-089Y","EPOCH":"2025-10-08T02:01:57.667872","MEAN_MOTION":15.27624573,"ECCENTRICITY":0.0001263,"INCLINATION":42.9974,"RA_OF_ASC_NODE":183.1282,"ARG_OF_PERICENTER":278.6164,"MEAN_ANOMALY":81.4544,"EPHEMERIS_TYPE":0,"CLASSIFICATION_TYPE":"U","NORAD_CAT_ID":63774,"ELEMENT_SET_NO":999,"REV_AT_EPOCH":2566,"BSTAR":0.0013093822,"MEAN_MOTION_DOT":0.00035994,"MEAN_MOTION_DDOT":0},{"OBJECT_NAME":"STARLINK-33932","OBJECT_ID":"2025-091A","EPOCH":"2025-10-08T03:23:07.508832","MEAN_MOTION":15.27627453,"ECCENTRICITY":2.715e-5,"INCLINATION":42.9996,"RA_OF_ASC_NODE":193.8888,"ARG_OF_PERICENTER":316.8967,"MEAN_ANOMALY":43.1864,"EPHEMERIS_TYPE":0,"CLASSIFICATION_TYPE":"U","NORAD_CAT_ID":63775,"ELEMENT_SET_NO":999,"REV_AT_EPOCH":2561,"BSTAR":0.0013239141,"MEAN_MOTION_DOT":0.00036402,"MEAN_MOTION_DDOT":0},{"OBJECT_NAME":"STARLINK-33930","OBJECT_ID":"2025-091B","EPOCH":"2025-10-08T02:38:55.075488","MEAN_MOTION":15.27653825,"ECCENTRICITY":0.00018585,"INCLINATION":43.0014,"RA_OF_ASC_NODE":194.5211,"ARG_OF_PERICENTER":273.4404,"MEAN_ANOMALY":86.6235,"EPHEMERIS_TYPE":0,"CLASSIFICATION_TYPE":"U","NORAD_CAT_ID":63776,"ELEMENT_SET_NO":999,"REV_AT_EPOCH":2556,"BSTAR":0.0019954911,"MEAN_MOTION_DOT":0.00055187,"MEAN_MOTION_DDOT":0},{"OBJECT_NAME":"STARLINK-33911","OBJECT_ID":"2025-091C","EPOCH":"2025-10-08T03:18:57.038688","MEAN_MOTION":15.27630365,"ECCENTRICITY":0.00015246,"INCLINATION":43.0014,"RA_OF_ASC_NODE":186.9093,"ARG_OF_PERICENTER":293.9879,"MEAN_ANOMALY":66.0813,"EPHEMERIS_TYPE":0,"CLASSIFICATION_TYPE":"U","NORAD_CAT_ID":63777,"ELEMENT_SET_NO":999,"REV_AT_EPOCH":2565,"BSTAR":0.001460222,"MEAN_MOTION_DOT":0.00040201,"MEAN_MOTION_DDOT":0}]
